[{"OBJECT_NAME":"STARLINK-33596","OBJECT_ID":"2025-015A","EPOCH":"2026-03-09T22:15:37.905120","MEAN_MOTION":15.30212806,"ECCENTRICITY":9.92e-5,"INCLINATION":53.1572,"RA_OF_ASC_NODE":321.6318,"ARG_OF_PERICENTER":112.1203,"MEAN_ANOMALY":247.9903,"EPHEMERIS_TYPE":0,"CLASSIFICATION_TYPE":"U","NORAD_CAT_ID":62758,"ELEMENT_SET_NO":999,"REV_AT_EPOCH":6444,"BSTAR":0.0010771292,"MEAN_MOTION_DOT":0.00031691,"MEAN_MOTION_DDOT":0},{"OBJECT_NAME":"CZ-2C DEB","OBJECT_ID":"2026-009D","EPOCH":"2026-03-09T18:06:55.672992","MEAN_MOTION":15.16841441,"ECCENTRICITY":0.00999045,"INCLINATION":97.6656,"RA_OF_ASC_NODE":143.8643,"ARG_OF_PERICENTER":42.8877,"MEAN_ANOMALY":318.0091,"EPHEMERIS_TYPE":0,"CLASSIFICATION_TYPE":"U","NORAD_CAT_ID":67587,"ELEMENT_SET_NO":999,"REV_AT_EPOCH":810,"BSTAR":0.0023439167,"MEAN_MOTION_DOT":0.00052682,"MEAN_MOTION_DDOT":0}]
